AISTECHSAT 2            
1 43768U 18099L   26179.70969284  .00004563  00000+0  24401-3 0  9996
2 43768  97.4289 227.4916 0003116 248.0546 112.0355 15.15560382414024
FOX-1CLIFF (AO-95)      
1 43770U 18099N   26179.61231892  .00010033  00000+0  38164-3 0  9996
2 43770  97.4385 239.8174 0007054 311.8599  48.2037 15.26945463414968
RANGE-A                 
1 43773U 18099R   26179.61625070  .00004038  00000+0  22911-3 0  9995
2 43773  97.3960 221.8609 0008792 313.5487  46.5014 15.13480287414227
SNUSAT-2                
1 43782U 18099AA  26179.64209293  .00007604  00000+0  33562-3 0  9999
2 43782  97.4059 232.8500 0008829 250.6133 109.4149 15.22004633414774
SNUGLITE                
1 43784U 18099AC  26180.39540065  .00010153  00000+0  38067-3 0  9998
2 43784  97.3864 234.5563 0001964 209.2823 150.8306 15.27436491415183
ITASAT                  
1 43786U 18099AE  26179.68058647  .00006300  00000+0  30213-3 0  9994
2 43786  97.4026 230.9633 0011055 317.1813  42.8560 15.19194925414651
EAGLET-I                
1 43790U 18099AJ  26179.69288943  .00004056  00000+0  23305-3 0  9994
2 43790  97.4225 229.0566 0009702 310.6127  49.4259 15.13021160414071
ESEO                    
1 43792U 18099AL  26180.35337948  .00001165  00000+0  87777-4 0  9993
2 43792  97.3970 217.2212 0010131 296.2697  63.7488 15.04283751413635
THEA                    
1 43796U 18099AQ  26179.67392540  .00017490  00000+0  51017-3 0  9994
2 43796  97.4445 249.4798 0006515 233.7252 126.3390 15.35394254414451
ASTROCAST 0.1           
1 43798U 18099AS  26180.14075351  .00035458  00000+0  62434-3 0  9997
2 43798  97.4378 259.0160 0005685 169.7871 190.3497 15.50352390416284
JY1SAT (JO-97)          
1 43803U 18099AX  26179.64306094  .00015787  00000+0  48155-3 0  9995
2 43803  97.4130 242.5189 0005256 213.1026 146.9889 15.34009895415388
SUOMI-100               
1 43804U 18099AY  26179.92433488  .00011790  00000+0  42476-3 0  9995
2 43804  97.4183 240.2750 0008973 230.8093 129.2350 15.28680106415217
CENTAURI-1              
1 43809U 18099BD  26179.95172093  .00005306  00000+0  27544-3 0  9990
2 43809  97.4218 231.4188 0012414 288.4026  71.5857 15.16477453414281
GLOBAL-2                
1 43812U 18099BG  26180.54375943  .00002587  00000+0  16854-3 0  9990
2 43812  97.3548 216.5432 0007649 108.7840 251.4220 15.08742375413773
SEAHAWK-1               
1 43820U 18099BQ  26179.63495976  .00008278  00000+0  35487-3 0  9992
2 43820  97.3956 231.9465 0006579 265.2529  94.7956 15.22986510414273
SAUDISAT 5A             
1 43831U 18102A   26180.54106486  .00005384  00000+0  19840-3 0  9996
2 43831  97.3066 241.8841 0011284  91.8054 268.4478 15.28172906417566
SAUDISAT 5B             
1 43833U 18102C   26180.49238943  .00005196  00000+0  19009-3 0  9994
2 43833  97.3175 244.9285 0011992  93.6209 266.6403 15.28422864417674
ISAT                    
1 43879U 18111D   26180.30039220  .00101083  00000+0  92203-3 0  9990
2 43879  97.5871 116.4725 0004246 161.8911 198.2501 15.67554437413066
UWE-4                   
1 43880U 18111E   26180.31500466  .00028228  00000+0  56220-3 0  9996
2 43880  97.5854 109.2707 0004281 275.7537  84.3224 15.46866057412659
D-STAR ONE (SPARROW)    
1 43881U 18111F   26179.81278692  .00172104  00000+0  99191-3 0  9990
2 43881  97.6099 121.7877 0005198 134.7870 225.3820 15.78181643413208
JILIN-1 09              
1 43943U 19005B   26180.55175981  .00004589  00000+0  21240-3 0  9993
2 43943  97.4749 275.4090 0003459  69.5020 290.6587 15.20618278411020
JILIN-1 10              
1 43946U 19005E   26180.52162863  .00005271  00000+0  20871-3 0  9996
2 43946  97.4797 279.3264 0007087 226.6615 133.4033 15.25850185411197
EGYPTSAT-A (MISRSAT-A)  
1 44047U 19008A   26180.51219115  .00000671  00000+0  11402-3 0  9993
2 44047  98.0196 245.1080 0001539  97.7380 262.4002 14.72321444395056
EMISAT                  
1 44078U 19018A   26180.48123821  .00000458  00000+0  14783-3 0  9990
2 44078  98.4648 239.2142 0018328 177.1438 182.9860 14.43643680381836
JILIN-1 GAOFEN 3A       
1 44312U 19032C   26180.53321324  .00009346  00000+0  29766-3 0  9993
2 44312  44.9754 288.9765 0005717 359.5594   0.5284 15.32896038389738
WT 1B                   
1 44316U 19032G   26180.49592847  .00012986  00000+0  48422-3 0  9996
2 44316  44.9708 353.7428 0010012 309.9988  50.0015 15.27423805388966
PROX-1                  
1 44339U 19036A   26179.90496288  .00012704  00000+0  12281-2 0  9992
2 44339  23.9961  35.9614 0005521 169.9714 190.0896 14.90892987375222
NPSAT1                  
1 44340U 19036B   26179.95962692  .00005347  00000+0  74696-3 0  9990
2 44340  23.9973 141.0772 0007140 346.4007  13.6296 14.74679425374233
